start=new Date('2022-12-12T00:00:00.000Z').valueOf();
sats=[{"CENTER_NAME":"EARTH","REF_FRAME":"TEME","INCLINATION":"53.2186","OBJECT_NAME":"STARLINK-3809","PERIAPSIS":"537.705","ECCENTRICITY":"0.00029520","MEAN_MOTION":"15.08839565","ELEMENT_SET_NO":"999","APOAPSIS":"541.789","EPHEMERIS_TYPE":"0","SITE":"AFETR","TLE_LINE2":"2 52851  53.2186 301.5090 0002952  28.3703 331.7450 15.08839565 27100","OBJECT_ID":"2022-062X","TIME_SYSTEM":"UTC","TLE_LINE1":"1 52851U 22062X   22345.19821582  .00001231  00000-0  95443-4 0  9991","MEAN_ANOMALY":"331.7450","ARG_OF_PERICENTER":"28.3703","REV_AT_EPOCH":"2710","RCS_SIZE":"LARGE","PERIOD":"95.438","COUNTRY_CODE":"US","MEAN_MOTION_DOT":"0.00001231","NORAD_CAT_ID":"52851","RA_OF_ASC_NODE":"301.5090","MEAN_ELEMENT_THEORY":"SGP4","FILE":"3691213","DECAY_DATE":null,"SEMIMAJOR_AXIS":"6917.882","CLASSIFICATION_TYPE":"U","OBJECT_TYPE":"PAYLOAD","LAUNCH_DATE":"2022-06-17","BSTAR":"0.00009544300000","MEAN_MOTION_DDOT":"0.0000000000000","EPOCH":"2022-12-11T04:45:25.846848","GP_ID":"220055381"},{"RA_OF_ASC_NODE":"298.5032","PERIOD":"95.437","COUNTRY_CODE":"US","MEAN_MOTION_DOT":"0.00004902","NORAD_CAT_ID":"52852","REV_AT_EPOCH":"2720","ARG_OF_PERICENTER":"34.6894","RCS_SIZE":"LARGE","MEAN_ANOMALY":"325.4306","BSTAR":"0.00032581000000","LAUNCH_DATE":"2022-06-17","MEAN_MOTION_DDOT":"0.0000000000000","EPOCH":"2022-12-11T20:49:52.787712","GP_ID":"220100766","CLASSIFICATION_TYPE":"U","SEMIMAJOR_AXIS":"6917.857","OBJECT_TYPE":"PAYLOAD","MEAN_ELEMENT_THEORY":"SGP4","FILE":"3691993","DECAY_DATE":null,"ECCENTRICITY":"0.00031870","PERIAPSIS":"537.517","OBJECT_NAME":"STARLINK-4184","REF_FRAME":"TEME","INCLINATION":"53.2164","CENTER_NAME":"EARTH","OBJECT_ID":"2022-062Y","TIME_SYSTEM":"UTC","TLE_LINE1":"1 52852U 22062Y   22345.86797208  .00004902  00000-0  32581-3 0  9994","SITE":"AFETR","TLE_LINE2":"2 52852  53.2164 298.5032 0003187  34.6894 325.4306 15.08847632 27205","MEAN_MOTION":"15.08847632","ELEMENT_SET_NO":"999","APOAPSIS":"541.927","EPHEMERIS_TYPE":"0"},{"MEAN_ANOMALY":"331.5754","RCS_SIZE":"LARGE","REV_AT_EPOCH":"2721","ARG_OF_PERICENTER":"28.5402","NORAD_CAT_ID":"52853","MEAN_MOTION_DOT":"0.00004438","COUNTRY_CODE":"US","PERIOD":"95.437","RA_OF_ASC_NODE":"298.2715","DECAY_DATE":null,"FILE":"3691993","MEAN_ELEMENT_THEORY":"SGP4","OBJECT_TYPE":"PAYLOAD","SEMIMAJOR_AXIS":"6917.845","CLASSIFICATION_TYPE":"U","GP_ID":"220100517","MEAN_MOTION_DDOT":"0.0000000000000","LAUNCH_DATE":"2022-06-17","BSTAR":"0.00029668000000","EPOCH":"2022-12-11T22:04:04.523520","CENTER_NAME":"EARTH","INCLINATION":"53.2184","REF_FRAME":"TEME","OBJECT_NAME":"STARLINK-4189","PERIAPSIS":"537.636","ECCENTRICITY":"0.00029980","EPHEMERIS_TYPE":"0","APOAPSIS":"541.784","ELEMENT_SET_NO":"999","MEAN_MOTION":"15.08851649","SITE":"AFETR","TLE_LINE2":"2 52853  53.2184 298.2715 0002998  28.5402 331.5754 15.08851649 27218","TLE_LINE1":"1 52853U 22062Z   22345.91949680  .00004438  00000-0  29668-3 0  9990","TIME_SYSTEM":"UTC","OBJECT_ID":"2022-062Z"},{"OBJECT_ID":"2022-062AA","TIME_SYSTEM":"UTC","TLE_LINE1":"1 52854U 22062AA  22345.26077638  .00014777  00000-0  94436-3 0  9996","MEAN_MOTION":"15.08847441","ELEMENT_SET_NO":"999","APOAPSIS":"541.512","EPHEMERIS_TYPE":"0","SITE":"AFETR","TLE_LINE2":"2 52854  53.2194 301.2284 0002587  23.1206 336.9902 15.08847441 27111","OBJECT_NAME":"STARLINK-4204","ECCENTRICITY":"0.00025870","PERIAPSIS":"537.933","CENTER_NAME":"EARTH","REF_FRAME":"TEME","INCLINATION":"53.2194","LAUNCH_DATE":"2022-06-17","MEAN_MOTION_DDOT":"0.0000000000000","EPOCH":"2022-12-11T06:15:31.079232","BSTAR":"0.00094436000000","GP_ID":"220055129","MEAN_ELEMENT_THEORY":"SGP4","FILE":"3691213","DECAY_DATE":null,"SEMIMAJOR_AXIS":"6917.858","CLASSIFICATION_TYPE":"U","OBJECT_TYPE":"PAYLOAD","COUNTRY_CODE":"US","PERIOD":"95.437","MEAN_MOTION_DOT":"0.00014777","NORAD_CAT_ID":"52854","RA_OF_ASC_NODE":"301.2284","MEAN_ANOMALY":"336.9902","REV_AT_EPOCH":"2711","ARG_OF_PERICENTER":"23.1206","RCS_SIZE":"LARGE"},{"OBJECT_NAME":"STARLINK-4209","PERIAPSIS":"538.254","ECCENTRICITY":"0.00021410","CENTER_NAME":"EARTH","INCLINATION":"53.2179","REF_FRAME":"TEME","TIME_SYSTEM":"UTC","OBJECT_ID":"2022-062AB","TLE_LINE1":"1 52855U 22062AB  22345.11725866  .00013092  00000-0  83906-3 0  9993","APOAPSIS":"541.217","ELEMENT_SET_NO":"999","MEAN_MOTION":"15.08843242","EPHEMERIS_TYPE":"0","SITE":"AFETR","TLE_LINE2":"2 52855  53.2179 301.8694 0002141  28.1030 332.0077 15.08843242 27094","PERIOD":"95.437","COUNTRY_CODE":"US","NORAD_CAT_ID":"52855","MEAN_MOTION_DOT":"0.00013092","RA_OF_ASC_NODE":"301.8694","MEAN_ANOMALY":"332.0077","REV_AT_EPOCH":"2709","ARG_OF_PERICENTER":"28.1030","RCS_SIZE":"LARGE","BSTAR":"0.00083906000000","LAUNCH_DATE":"2022-06-17","MEAN_MOTION_DDOT":"0.0000000000000","EPOCH":"2022-12-11T02:48:51.148224","GP_ID":"220055881","MEAN_ELEMENT_THEORY":"SGP4","DECAY_DATE":null,"FILE":"3691213","CLASSIFICATION_TYPE":"U","SEMIMAJOR_AXIS":"6917.870","OBJECT_TYPE":"PAYLOAD"},{"INCLINATION":"53.2172","REF_FRAME":"TEME","CENTER_NAME":"EARTH","PERIAPSIS":"538.059","ECCENTRICITY":"0.00024120","OBJECT_NAME":"STARLINK-4201","SITE":"AFETR","TLE_LINE2":"2 52856  53.2172 301.2562 0002412  29.2036 330.9090 15.08845858 27115","APOAPSIS":"541.396","ELEMENT_SET_NO":"999","MEAN_MOTION":"15.08845858","EPHEMERIS_TYPE":"0","TIME_SYSTEM":"UTC","OBJECT_ID":"2022-062AC","TLE_LINE1":"1 52856U 22062AC  22345.25341090  .00003900  00000-0  26298-3 0  9990","REV_AT_EPOCH":"2711","ARG_OF_PERICENTER":"29.2036","RCS_SIZE":"LARGE","MEAN_ANOMALY":"330.9090","RA_OF_ASC_NODE":"301.2562","PERIOD":"95.437","COUNTRY_CODE":"US","MEAN_MOTION_DOT":"0.00003900","NORAD_CAT_ID":"52856","CLASSIFICATION_TYPE":"U","SEMIMAJOR_AXIS":"6917.862","OBJECT_TYPE":"PAYLOAD","MEAN_ELEMENT_THEORY":"SGP4","DECAY_DATE":null,"FILE":"3691213","MEAN_MOTION_DDOT":"0.0000000000000","LAUNCH_DATE":"2022-06-17","BSTAR":"0.00026298000000","EPOCH":"2022-12-11T06:04:54.701760","GP_ID":"220056131"},{"TLE_LINE1":"1 52857U 22062AD  22345.90478640  .00012320  00000-0  79171-3 0  9999","TIME_SYSTEM":"UTC","OBJECT_ID":"2022-062AD","EPHEMERIS_TYPE":"0","APOAPSIS":"541.577","ELEMENT_SET_NO":"999","MEAN_MOTION":"15.08797470","TLE_LINE2":"2 52857  53.2173 298.3257 0002459  33.7515 326.3633 15.08797470 27216","SITE":"AFETR","OBJECT_NAME":"STARLINK-4199","ECCENTRICITY":"0.00024590","PERIAPSIS":"538.174","CENTER_NAME":"EARTH","INCLINATION":"53.2173","REF_FRAME":"TEME","GP_ID":"220101017","MEAN_MOTION_DDOT":"0.0000000000000","LAUNCH_DATE":"2022-06-17","EPOCH":"2022-12-11T21:42:53.544960","BSTAR":"0.00079171000000","DECAY_DATE":null,"FILE":"3691993","MEAN_ELEMENT_THEORY":"SGP4","OBJECT_TYPE":"PAYLOAD","SEMIMAJOR_AXIS":"6918.010","CLASSIFICATION_TYPE":"U","NORAD_CAT_ID":"52857","MEAN_MOTION_DOT":"0.00012320","PERIOD":"95.440","COUNTRY_CODE":"US","RA_OF_ASC_NODE":"298.3257","MEAN_ANOMALY":"326.3633","RCS_SIZE":"LARGE","ARG_OF_PERICENTER":"33.7515","REV_AT_EPOCH":"2721"},{"SITE":"AFETR","TLE_LINE2":"2 52858  53.2178 298.2960 0002342  30.7844 329.3285 15.08844777 27214","MEAN_MOTION":"15.08844777","ELEMENT_SET_NO":"999","APOAPSIS":"541.351","EPHEMERIS_TYPE":"0","OBJECT_ID":"2022-062AE","TIME_SYSTEM":"UTC","TLE_LINE1":"1 52858U 22062AE  22345.91309177  .00004407  00000-0  29476-3 0  9999","REF_FRAME":"TEME","INCLINATION":"53.2178","CENTER_NAME":"EARTH","PERIAPSIS":"538.111","ECCENTRICITY":"0.00023420","OBJECT_NAME":"STARLINK-4198","CLASSIFICATION_TYPE":"U","SEMIMAJOR_AXIS":"6917.866","OBJECT_TYPE":"PAYLOAD","MEAN_ELEMENT_THEORY":"SGP4","FILE":"3691993","DECAY_DATE":null,"LAUNCH_DATE":"2022-06-17","BSTAR":"0.00029476000000","MEAN_MOTION_DDOT":"0.0000000000000","EPOCH":"2022-12-11T21:54:51.128928","GP_ID":"220099765","REV_AT_EPOCH":"2721","ARG_OF_PERICENTER":"30.7844","RCS_SIZE":"LARGE","MEAN_ANOMALY":"329.3285","RA_OF_ASC_NODE":"298.2960","PERIOD":"95.437","COUNTRY_CODE":"US","NORAD_CAT_ID":"52858","MEAN_MOTION_DOT":"0.00004407"},{"CENTER_NAME":"EARTH","REF_FRAME":"TEME","INCLINATION":"53.2179","OBJECT_NAME":"STARLINK-4196","PERIAPSIS":"538.056","ECCENTRICITY":"0.00024160","MEAN_MOTION":"15.08846001","APOAPSIS":"541.398","ELEMENT_SET_NO":"999","EPHEMERIS_TYPE":"0","TLE_LINE2":"2 52859  53.2179 298.3435 0002416  29.8628 330.2502 15.08846001 27210","SITE":"AFETR","OBJECT_ID":"2022-062AF","TIME_SYSTEM":"UTC","TLE_LINE1":"1 52859U 22062AF  22345.90109492  .00006752  00000-0  44186-3 0  9997","MEAN_ANOMALY":"330.2502","REV_AT_EPOCH":"2721","ARG_OF_PERICENTER":"29.8628","RCS_SIZE":"LARGE","PERIOD":"95.437","COUNTRY_CODE":"US","NORAD_CAT_ID":"52859","MEAN_MOTION_DOT":"0.00006752","RA_OF_ASC_NODE":"298.3435","MEAN_ELEMENT_THEORY":"SGP4","FILE":"3691993","DECAY_DATE":null,"CLASSIFICATION_TYPE":"U","SEMIMAJOR_AXIS":"6917.862","OBJECT_TYPE":"PAYLOAD","LAUNCH_DATE":"2022-06-17","MEAN_MOTION_DDOT":"0.0000000000000","BSTAR":"0.00044186000000","EPOCH":"2022-12-11T21:37:34.601088","GP_ID":"220099516"},{"MEAN_ANOMALY":"336.3874","RCS_SIZE":"LARGE","ARG_OF_PERICENTER":"23.7259","REV_AT_EPOCH":"2721","MEAN_MOTION_DOT":"0.00003494","NORAD_CAT_ID":"52860","COUNTRY_CODE":"US","PERIOD":"95.438","RA_OF_ASC_NODE":"298.3195","FILE":"3691993","DECAY_DATE":null,"MEAN_ELEMENT_THEORY":"SGP4","OBJECT_TYPE":"PAYLOAD","SEMIMAJOR_AXIS":"6917.899","CLASSIFICATION_TYPE":"U","GP_ID":"220100767","LAUNCH_DATE":"2022-06-17","BSTAR":"0.00023757000000","MEAN_MOTION_DDOT":"0.0000000000000","EPOCH":"2022-12-11T21:48:10.939680","CENTER_NAME":"EARTH","REF_FRAME":"TEME","INCLINATION":"53.2185","OBJECT_NAME":"STARLINK-4191","ECCENTRICITY":"0.00030700","PERIAPSIS":"537.640","EPHEMERIS_TYPE":"0","MEAN_MOTION":"15.08833993","ELEMENT_SET_NO":"999","APOAPSIS":"541.888","TLE_LINE2":"2 52860  53.2185 298.3195 0003070  23.7259 336.3874 15.08833993 27217","SITE":"AFETR","TLE_LINE1":"1 52860U 22062AG  22345.90845995  .00003494  00000-0  23757-3 0  9995","OBJECT_ID":"2022-062AG","TIME_SYSTEM":"UTC"}];
